[{"OBJECT_NAME":"SL-8 R/B","OBJECT_ID":"1988-053B","EPOCH":"2026-04-28T18:46:47.115264","MEAN_MOTION":14.38943258,"ECCENTRICITY":0.0020483,"INCLINATION":74.0498,"RA_OF_ASC_NODE":20.1285,"ARG_OF_PERICENTER":191.1589,"MEAN_ANOMALY":225.4823,"EPHEMERIS_TYPE":0,"CLASSIFICATION_TYPE":"U","NORAD_CAT_ID":19257,"ELEMENT_SET_NO":999,"REV_AT_EPOCH":98380,"BSTAR":7.4907e-5,"MEAN_MOTION_DOT":2.05e-6,"MEAN_MOTION_DDOT":0},{"OBJECT_NAME":"COSMOS 1975","OBJECT_ID":"1988-093A","EPOCH":"2026-04-28T20:59:39.698592","MEAN_MOTION":15.28691096,"ECCENTRICITY":0.001134,"INCLINATION":82.5189,"RA_OF_ASC_NODE":67.2701,"ARG_OF_PERICENTER":4.8139,"MEAN_ANOMALY":355.3207,"EPHEMERIS_TYPE":0,"CLASSIFICATION_TYPE":"U","NORAD_CAT_ID":19573,"ELEMENT_SET_NO":999,"REV_AT_EPOCH":2707,"BSTAR":0.000263,"MEAN_MOTION_DOT":7.381e-5,"MEAN_MOTION_DDOT":0},{"OBJECT_NAME":"SL-14 R/B","OBJECT_ID":"1988-093B","EPOCH":"2026-04-28T16:53:43.248192","MEAN_MOTION":14.8570546,"ECCENTRICITY":0.0019423,"INCLINATION":82.5329,"RA_OF_ASC_NODE":355.1058,"ARG_OF_PERICENTER":230.0257,"MEAN_ANOMALY":191.8696,"EPHEMERIS_TYPE":0,"CLASSIFICATION_TYPE":"U","NORAD_CAT_ID":19574,"ELEMENT_SET_NO":999,"REV_AT_EPOCH":844,"BSTAR":4.2809e-5,"MEAN_MOTION_DOT":3.97e-6,"MEAN_MOTION_DDOT":0},{"OBJECT_NAME":"SL-16 R/B","OBJECT_ID":"1988-102B","EPOCH":"2026-04-28T03:17:44.657088","MEAN_MOTION":14.16157523,"ECCENTRICITY":0.00162561,"INCLINATION":71.0007,"RA_OF_ASC_NODE":47.4503,"ARG_OF_PERICENTER":291.8242,"MEAN_ANOMALY":68.1152,"EPHEMERIS_TYPE":0,"CLASSIFICATION_TYPE":"U","NORAD_CAT_ID":19650,"ELEMENT_SET_NO":999,"REV_AT_EPOCH":93389,"BSTAR":5.7354237e-5,"MEAN_MOTION_DOT":6.6e-7,"MEAN_MOTION_DDOT":0},{"OBJECT_NAME":"INTERCOSMOS 24","OBJECT_ID":"1989-080A","EPOCH":"2026-04-28T20:20:21.846048","MEAN_MOTION":12.59603699,"ECCENTRICITY":0.1187581,"INCLINATION":82.6046,"RA_OF_ASC_NODE":71.7392,"ARG_OF_PERICENTER":176.347,"MEAN_ANOMALY":184.7357,"EPHEMERIS_TYPE":0,"CLASSIFICATION_TYPE":"U","NORAD_CAT_ID":20261,"ELEMENT_SET_NO":999,"REV_AT_EPOCH":67311,"BSTAR":0.00013664,"MEAN_MOTION_DOT":4.82e-6,"MEAN_MOTION_DDOT":0},{"OBJECT_NAME":"SL-14 R/B","OBJECT_ID":"1989-080C","EPOCH":"2026-04-28T13:31:50.075328","MEAN_MOTION":12.50530965,"ECCENTRICITY":0.1230968,"INCLINATION":82.5903,"RA_OF_ASC_NODE":141.1793,"ARG_OF_PERICENTER":70.8146,"MEAN_ANOMALY":302.1879,"EPHEMERIS_TYPE":0,"CLASSIFICATION_TYPE":"U","NORAD_CAT_ID":20262,"ELEMENT_SET_NO":999,"REV_AT_EPOCH":66638,"BSTAR":0.00010858,"MEAN_MOTION_DOT":3.92e-6,"MEAN_MOTION_DDOT":0},{"OBJECT_NAME":"DELTA 1 R/B","OBJECT_ID":"1989-089B","EPOCH":"2026-04-28T11:44:44.085696","MEAN_MOTION":14.50698767,"ECCENTRICITY":0.0068117,"INCLINATION":97.0664,"RA_OF_ASC_NODE":317.9921,"ARG_OF_PERICENTER":326.3015,"MEAN_ANOMALY":33.3861,"EPHEMERIS_TYPE":0,"CLASSIFICATION_TYPE":"U","NORAD_CAT_ID":20323,"ELEMENT_SET_NO":999,"REV_AT_EPOCH":90295,"BSTAR":7.9486e-5,"MEAN_MOTION_DOT":2.86e-6,"MEAN_MOTION_DDOT":0},{"OBJECT_NAME":"ARIANE 40 R/B","OBJECT_ID":"1990-005H","EPOCH":"2026-04-28T18:38:57.386112","MEAN_MOTION":14.39900769,"ECCENTRICITY":0.001111,"INCLINATION":98.2993,"RA_OF_ASC_NODE":177.9214,"ARG_OF_PERICENTER":58.9297,"MEAN_ANOMALY":301.2981,"EPHEMERIS_TYPE":0,"CLASSIFICATION_TYPE":"U","NORAD_CAT_ID":20443,"ELEMENT_SET_NO":999,"REV_AT_EPOCH":90001,"BSTAR":9.5309e-5,"MEAN_MOTION_DOT":2.58e-6,"MEAN_MOTION_DDOT":0},{"OBJECT_NAME":"DELTA 2 R/B(1)","OBJECT_ID":"1990-008B","EPOCH":"2026-04-28T15:14:19.876128","MEAN_MOTION":15.62330203,"ECCENTRICITY":0.0073178,"INCLINATION":35.6018,"RA_OF_ASC_NODE":205.4372,"ARG_OF_PERICENTER":7.3498,"MEAN_ANOMALY":352.8298,"EPHEMERIS_TYPE":0,"CLASSIFICATION_TYPE":"U","NORAD_CAT_ID":20453,"ELEMENT_SET_NO":999,"REV_AT_EPOCH":93393,"BSTAR":0.00060822,"MEAN_MOTION_DOT":0.00064237,"MEAN_MOTION_DDOT":0},{"OBJECT_NAME":"COSMOS 2058","OBJECT_ID":"1990-010A","EPOCH":"2026-04-28T16:40:34.226112","MEAN_MOTION":15.11715644,"ECCENTRICITY":0.001015,"INCLINATION":82.4691,"RA_OF_ASC_NODE":358.159,"ARG_OF_PERICENTER":150.6714,"MEAN_ANOMALY":209.5088,"EPHEMERIS_TYPE":0,"CLASSIFICATION_TYPE":"U","NORAD_CAT_ID":20465,"ELEMENT_SET_NO":999,"REV_AT_EPOCH":94979,"BSTAR":0.00017721,"MEAN_MOTION_DOT":3.05e-5,"MEAN_MOTION_DDOT":0},{"OBJECT_NAME":"SL-14 R/B","OBJECT_ID":"1990-010B","EPOCH":"2026-04-28T19:10:34.646304","MEAN_MOTION":14.83614724,"ECCENTRICITY":0.002097,"INCLINATION":82.5042,"RA_OF_ASC_NODE":220.3192,"ARG_OF_PERICENTER":132.0822,"MEAN_ANOMALY":228.2181,"EPHEMERIS_TYPE":0,"CLASSIFICATION_TYPE":"U","NORAD_CAT_ID":20466,"ELEMENT_SET_NO":999,"REV_AT_EPOCH":93591,"BSTAR":5.1056e-5,"MEAN_MOTION_DOT":4.47e-6,"MEAN_MOTION_DDOT":0},{"OBJECT_NAME":"SL-14 R/B","OBJECT_ID":"1990-018B","EPOCH":"2026-04-28T14:16:31.881216","MEAN_MOTION":14.82186325,"ECCENTRICITY":0.0014758,"INCLINATION":82.5227,"RA_OF_ASC_NODE":176.4601,"ARG_OF_PERICENTER":289.2749,"MEAN_ANOMALY":70.6868,"EPHEMERIS_TYPE":0,"CLASSIFICATION_TYPE":"U","NORAD_CAT_ID":20511,"ELEMENT_SET_NO":999,"REV_AT_EPOCH":92997,"BSTAR":4.0804e-5,"MEAN_MOTION_DOT":3.49e-6,"MEAN_MOTION_DDOT":0},{"OBJECT_NAME":"HST","OBJECT_ID":"1990-037B","EPOCH":"2026-04-28T12:29:06.362592","MEAN_MOTION":15.30186885,"ECCENTRICITY":0.0001707,"INCLINATION":28.475,"RA_OF_ASC_NODE":59.8747,"ARG_OF_PERICENTER":318.3869,"MEAN_ANOMALY":41.6597,"EPHEMERIS_TYPE":0,"CLASSIFICATION_TYPE":"U","NORAD_CAT_ID":20580,"ELEMENT_SET_NO":999,"REV_AT_EPOCH":78095,"BSTAR":0.0002183,"MEAN_MOTION_DOT":6.794e-5,"MEAN_MOTION_DDOT":0},{"OBJECT_NAME":"SL-16 R/B","OBJECT_ID":"1990-046B","EPOCH":"2026-04-28T14:31:58.300032","MEAN_MOTION":14.15016424,"ECCENTRICITY":0.0015958,"INCLINATION":70.9989,"RA_OF_ASC_NODE":193.0789,"ARG_OF_PERICENTER":233.2583,"MEAN_ANOMALY":126.7075,"EPHEMERIS_TYPE":0,"CLASSIFICATION_TYPE":"U","NORAD_CAT_ID":20625,"ELEMENT_SET_NO":999,"REV_AT_EPOCH":85545,"BSTAR":0.00014183,"MEAN_MOTION_DOT":2.27e-6,"MEAN_MOTION_DDOT":0},{"OBJECT_NAME":"COSMOS 2084","OBJECT_ID":"1990-055A","EPOCH":"2026-04-28T20:38:31.476192","MEAN_MOTION":15.05916104,"ECCENTRICITY":0.0009215,"INCLINATION":62.7891,"RA_OF_ASC_NODE":164.4243,"ARG_OF_PERICENTER":212.5479,"MEAN_ANOMALY":147.5054,"EPHEMERIS_TYPE":0,"CLASSIFICATION_TYPE":"U","NORAD_CAT_ID":20663,"ELEMENT_SET_NO":999,"REV_AT_EPOCH":94387,"BSTAR":0.00015629,"MEAN_MOTION_DOT":2.084e-5,"MEAN_MOTION_DDOT":0},{"OBJECT_NAME":"SL-6 R/B(2)","OBJECT_ID":"1990-055D","EPOCH":"2026-04-28T15:30:38.579040","MEAN_MOTION":15.0381269,"ECCENTRICITY":0.0032875,"INCLINATION":62.7822,"RA_OF_ASC_NODE":83.9324,"ARG_OF_PERICENTER":357.4127,"MEAN_ANOMALY":2.6797,"EPHEMERIS_TYPE":0,"CLASSIFICATION_TYPE":"U","NORAD_CAT_ID":20666,"ELEMENT_SET_NO":999,"REV_AT_EPOCH":94570,"BSTAR":0.00020833,"MEAN_MOTION_DOT":2.707e-5,"MEAN_MOTION_DDOT":0},{"OBJECT_NAME":"SL-8 R/B","OBJECT_ID":"1990-078B","EPOCH":"2026-04-28T16:20:52.465056","MEAN_MOTION":14.90510254,"ECCENTRICITY":0.0355995,"INCLINATION":82.906,"RA_OF_ASC_NODE":206.3061,"ARG_OF_PERICENTER":205.1089,"MEAN_ANOMALY":153.2457,"EPHEMERIS_TYPE":0,"CLASSIFICATION_TYPE":"U","NORAD_CAT_ID":20775,"ELEMENT_SET_NO":999,"REV_AT_EPOCH":81674,"BSTAR":0.00066299,"MEAN_MOTION_DOT":0.00022733,"MEAN_MOTION_DDOT":0}]
