SL-8 R/B                
1 19257U 88053B   26118.78248976  .00000205  00000+0  74907-4 0  9994
2 19257  74.0498  20.1285 0020483 191.1589 225.4823 14.38943258983808
COSMOS 1975             
1 19573U 88093A   26118.87476503  .00007381  00000+0  26300-3 0  9993
2 19573  82.5189  67.2701 0011340   4.8139 355.3207 15.28691096 27075
SL-14 R/B               
1 19574U 88093B   26118.70397278  .00000397  00000+0  42809-4 0  9990
2 19574  82.5329 355.1058 0019423 230.0257 191.8696 14.85705460  8448
SL-16 R/B               
1 19650U 88102B   26118.13732242  .00000066  00000+0  57354-4 0  9991
2 19650  71.0007  47.4503 0016256 291.8242  68.1152 14.16157523933899
INTERCOSMOS 24          
1 20261U 89080A   26118.84747507  .00000482  00000+0  13664-3 0  9992
2 20261  82.6046  71.7392 1187581 176.3470 184.7357 12.59603699673110
SL-14 R/B               
1 20262U 89080C   26118.56377402  .00000392  00000+0  10858-3 0  9997
2 20262  82.5903 141.1793 1230968  70.8146 302.1879 12.50530965666387
DELTA 1 R/B             
1 20323U 89089B   26118.48939914  .00000286  00000+0  79486-4 0  9992
2 20323  97.0664 317.9921 0068117 326.3015  33.3861 14.50698767902951
ARIANE 40 R/B           
1 20443U 90005H   26118.77705308  .00000258  00000+0  95309-4 0  9996
2 20443  98.2993 177.9214 0011110  58.9297 301.2981 14.39900769900012
DELTA 2 R/B(1)          
1 20453U 90008B   26118.63495227  .00064237  00000+0  60822-3 0  9999
2 20453  35.6018 205.4372 0073178   7.3498 352.8298 15.62330203933938
COSMOS 2058             
1 20465U 90010A   26118.69484058  .00003050  00000+0  17721-3 0  9997
2 20465  82.4691 358.1590 0010150 150.6714 209.5088 15.11715644949796
SL-14 R/B               
1 20466U 90010B   26118.79901211  .00000447  00000+0  51056-4 0  9991
2 20466  82.5042 220.3192 0020970 132.0822 228.2181 14.83614724935917
SL-14 R/B               
1 20511U 90018B   26118.59481344  .00000349  00000+0  40804-4 0  9998
2 20511  82.5227 176.4601 0014758 289.2749  70.6868 14.82186325929979
HST                     
1 20580U 90037B   26118.52021253  .00006794  00000+0  21830-3 0  9994
2 20580  28.4750  59.8747 0001707 318.3869  41.6597 15.30186885780952
SL-16 R/B               
1 20625U 90046B   26118.60553588  .00000227  00000+0  14183-3 0  9992
2 20625  70.9989 193.0789 0015958 233.2583 126.7075 14.15016424855453
COSMOS 2084             
1 20663U 90055A   26118.86008653  .00002084  00000+0  15629-3 0  9999
2 20663  62.7891 164.4243 0009215 212.5479 147.5054 15.05916104943872
SL-6 R/B(2)             
1 20666U 90055D   26118.64627985  .00002707  00000+0  20833-3 0  9998
2 20666  62.7822  83.9324 0032875 357.4127   2.6797 15.03812690945703
SL-8 R/B                
1 20775U 90078B   26118.68116279  .00022733  00000+0  66299-3 0  9994
2 20775  82.9060 206.3061 0355995 205.1089 153.2457 14.90510254816741
